[{"OBJECT_NAME":"STARLINK-31500","OBJECT_ID":"2024-056K","EPOCH":"2026-03-09T11:50:52.134144","MEAN_MOTION":15.27579367,"ECCENTRICITY":0.00013041,"INCLINATION":42.9972,"RA_OF_ASC_NODE":231.8707,"ARG_OF_PERICENTER":183.2454,"MEAN_ANOMALY":176.839,"EPHEMERIS_TYPE":0,"CLASSIFICATION_TYPE":"U","NORAD_CAT_ID":59305,"ELEMENT_SET_NO":999,"REV_AT_EPOCH":11112,"BSTAR":-8.0925194e-5,"MEAN_MOTION_DOT":-2.488e-5,"MEAN_MOTION_DDOT":0},{"OBJECT_NAME":"ELECTRON KICK STAGE R\/B","OBJECT_ID":"2022-147B","EPOCH":"2026-03-09T22:28:20.187264","MEAN_MOTION":15.28920172,"ECCENTRICITY":0.00095089,"INCLINATION":97.642,"RA_OF_ASC_NODE":85.1135,"ARG_OF_PERICENTER":110.4683,"MEAN_ANOMALY":249.7578,"EPHEMERIS_TYPE":0,"CLASSIFICATION_TYPE":"U","NORAD_CAT_ID":54228,"ELEMENT_SET_NO":999,"REV_AT_EPOCH":18390,"BSTAR":0.00083201931,"MEAN_MOTION_DOT":0.00023374,"MEAN_MOTION_DDOT":0}]
